UNKNOWN                 
1 81779U          26022.47330232 -.00009541  00000+0 -52418+0 0  9997
2 81779  54.5286 148.4341 1552008  90.3672 287.4329  9.34272562484121
UNKNOWN                 
1 81792U          26018.27248162  .00002371  00000+0  84712-3 0  9993
2 81792  65.8274  13.7586 0896191 266.3044  83.5209 13.11111422 84826
UNKNOWN                 
1 81812U          26022.23427284  .00002836  00000+0  20260-1 0  9993
2 81812 103.8138 304.1112 0235627 172.8173 187.6352 12.37685399545573
UNKNOWN                 
1 81816U          26021.10942495  .00001243  00000+0  95521-3 0  9993
2 81816  66.2363 197.9583 0175558 223.9994 134.6995 13.89566714614810
UNKNOWN                 
1 81819U          26019.26473203  .00001136  00000+0  79989-2 0  9996
2 81819 102.1723 121.9588 0028628  41.2765 319.0460 12.47740488552695
UNKNOWN                 
1 81824U          26020.28796208  .00007892  00000+0  27175-2 0  9994
2 81824  65.8410 232.0212 0043711 312.9439  46.7991 14.35869592630128
UNKNOWN                 
1 81833U          26018.23549801  .00000219  00000+0  76826-3 0  9995
2 81833  90.2414   3.7011 0025643 290.3486  69.4877 12.93741453457230
UNKNOWN                 
1 81838U          26019.68915785  .00005938  00000+0  13083-2 0  9996
2 81838  67.7594 167.0648 0041123 329.9936  43.0835 14.57475351638868
UNKNOWN                 
1 81844U          26022.61135460  .00008009  00000+0  28413-2 0  9999
2 81844  82.9089 249.0335 0062801  27.4610 332.9873 14.33260155628748
UNKNOWN                 
1 81845U          26021.48634826  .00007109  00000+0  77650-3 0  9992
2 81845  97.6746 212.0706 0087489 173.4777 216.8762 14.85381644655425
UNKNOWN                 
1 81864U          26016.16998432  .00002078  00000+0  81233-3 0  9990
2 81864  65.6730 346.3915 0765717 358.2266   1.6083 13.32513215555427
UNKNOWN                 
1 81865U          26022.37829858  .00002198  00000+0  18029-2 0  9991
2 81865  82.8063 357.3054 0060522 249.3034 265.6375 13.88153530614185
